STARLINK-5949           
1 56019U 23042AK  26165.45152515 -.00000473  00000+0 -76650-5 0  9994
2 56019  42.9992 218.7973 0001075 279.1037  80.9693 15.27573879177832
STARLINK-5912           
1 56020U 23042AL  26165.85797733 -.00000552  00000+0 -10533-4 0  9992
2 56020  43.0075 216.6817 0001639 257.0534 103.0135 15.27560944177898
STARLINK-5907           
1 56021U 23042AM  26165.85413733 -.00000888  00000+0 -22754-4 0  9998
2 56021  43.0067 216.6577 0001873 355.0897   4.9936 15.27567686177892
STARLINK-5783           
1 56022U 23042AN  26165.42068709 -.00000307  00000+0 -16258-5 0  9990
2 56022  43.0058 218.5695 0001963 274.1810  85.8817 15.27574546177834
STARLINK-5771           
1 56023U 23042AP  26165.87211804  .00001048  00000+0  47603-4 0  9994
2 56023  43.0014 216.7821 0001433 265.3946  94.6741 15.27579840177894
STARLINK-5772           
1 56024U 23042AQ  26165.82456768 -.00000026  00000+0  85968-5 0  9993
2 56024  43.0004 216.4310 0001325 272.8530  87.2170 15.27575774177892
STARLINK-5766           
1 56025U 23042AR  26165.87082221  .00000124  00000+0  14037-4 0  9994
2 56025  43.0060 216.7758 0002028 283.3863  76.6763 15.27578299177896
STARLINK-5770           
1 56026U 23042AS  26165.42454010  .00000600  00000+0  31339-4 0  9998
2 56026  43.0077 218.6012 0001945 280.1839  79.8793 15.27580805177821
STARLINK-5777           
1 56027U 23042AT  26164.43860063  .00000069  00000+0  12020-4 0  9993
2 56027  43.0060 224.0984 0001448 264.4232  95.6455 15.27581041177681
STARLINK-5779           
1 56028U 23042AU  26165.83484873 -.00000522  00000+0 -94386-5 0  9992
2 56028  42.9980 216.5073 0001294 268.9439  91.1264 15.27575344177894
STARLINK-5774           
1 56029U 23042AV  26165.42839392  .00000191  00000+0  16476-4 0  9991
2 56029  43.0000 218.6178 0001485 268.2321  91.8361 15.27577645177839
STARLINK-5781           
1 56030U 23042AW  26165.44638246 -.00000516  00000+0 -92385-5 0  9997
2 56030  43.0009 218.7480 0001200 262.3447  97.7268 15.27571477177834
STARLINK-5785           
1 56031U 23042AX  26165.82715420 -.00000866  00000+0 -21928-4 0  9992
2 56031  43.0019 216.4507 0001902 276.8511  83.2125 15.27576353177898
STARLINK-5786           
1 56032U 23042AY  26165.85283812  .00000077  00000+0  12333-4 0  9993
2 56032  43.0025 216.6418 0000963 269.5917  90.4824 15.27573108177895
STARLINK-5782           
1 56034U 23042BA  26165.86054658  .00000043  00000+0  11086-4 0  9997
2 56034  43.0032 216.6940 0001356 278.6899  81.3799 15.27576766177895
STARLINK-5792           
1 56035U 23042BB  26165.45023641 -.00000711  00000+0 -16313-4 0  9993
2 56035  43.0013 218.7776 0001161 284.4344  75.6379 15.27579690177832
STARLINK-5790           
1 56036U 23042BC  26165.85154286  .00000076  00000+0  12279-4 0  9997
2 56036  43.0051 216.6152 0001092 318.1593  41.9175 15.27580099177895
STARLINK-5758           
1 56037U 23042BD  26165.79822464 -.00000154  00000+0  39347-5 0  9995
2 56037  43.0021 202.3320 0001146 263.6267  96.4454 15.27575700178051
STARLINK-5793           
1 56038U 23042BE  26163.90666375  .00000213  00000+0  17310-4 0  9994
2 56038  43.0145 227.8346 0003063 295.8792  64.1744 15.27579812177599
STARLINK-5795           
1 56039U 23042BF  26165.81621719 -.00000724  00000+0 -16804-4 0  9996
2 56039  43.0025 202.4645 0000880 292.0356  68.0402 15.27573656178053
STARLINK-5798           
1 56040U 23042BG  26165.82006868 -.00000301  00000+0 -13841-5 0  9991
2 56040  43.0065 202.4836 0001891 287.6348  72.4297 15.27574542178051
STARLINK-5800           
1 56041U 23042BH  26165.58995668 -.00065752  00000+0 -23790-2 0  9992
2 56041  42.9997 206.7411 0002103 238.8537 121.2108 15.27880253177989
ONEWEB-0537             
1 56046U 23043A   26166.14268226  .00000068  00000+0  14524-3 0  9997
2 56046  87.9096 229.1776 0002275  99.7404 260.3984 13.16594191158696
ONEWEB-0538             
1 56047U 23043B   26166.13634862  .00000015  00000+0  67726-5 0  9996
2 56047  87.9099 229.1812 0002132 105.2905 254.8462 13.16595121158707
ONEWEB-0546             
1 56048U 23043C   26166.12368373  .00000024  00000+0  29929-4 0  9999
2 56048  87.9100 229.1838 0002762  97.5212 262.6233 13.16594960158693
ONEWEB-0547             
1 56049U 23043D   26166.28002000 -.00000082  00000+0 -23070-3 0  9995
2 56049  87.9261 244.3535 0001946 104.0971 256.0380 13.21825468157970
ONEWEB-0548             
1 56050U 23043E   26166.22420454  .00000106  00000+0  24434-3 0  9998
2 56050  87.9097 229.1601 0002013  85.1005 275.0356 13.16596386158701
ONEWEB-0549             
1 56051U 23043F   26166.27413637  .00000050  00000+0  89561-4 0  9990
2 56051  87.9253 244.3613 0002083 110.0004 250.1355 13.21825662157971
ONEWEB-0550             
1 56052U 23043G   26166.26069012  .00000060  00000+0  11429-3 0  9992
2 56052  87.9257 244.3616 0001914  93.4337 266.7016 13.21825574157973
ONEWEB-0551             
1 56053U 23043H   26166.25379788  .00000179  00000+0  44064-3 0  9998
2 56053  87.9002 259.6115 0001904 111.2776 248.8558 13.15549398156140
