OBJECT_NAME,OBJECT_ID,EPOCH,MEAN_MOTION,ECCENTRICITY,INCLINATION,RA_OF_ASC_NODE,ARG_OF_PERICENTER,MEAN_ANOMALY,EPHEMERIS_TYPE,CLASSIFICATION_TYPE,NORAD_CAT_ID,ELEMENT_SET_NO,REV_AT_EPOCH,BSTAR,MEAN_MOTION_DOT,MEAN_MOTION_DDOT
STARLINK-5949,2023-042AK,2026-06-14T10:50:11.772960,15.27573879,.00010758,42.9992,218.7973,279.1037,80.9693,0,U,56019,999,17783,-.7665016E-5,-.473E-5,0
STARLINK-5912,2023-042AL,2026-06-14T20:35:29.241312,15.27560944,.00016391,43.0075,216.6817,257.0534,103.0135,0,U,56020,999,17789,-.10532517E-4,-.552E-5,0
STARLINK-5907,2023-042AM,2026-06-14T20:29:57.465312,15.27567686,.00018736,43.0067,216.6577,355.0897,4.9936,0,U,56021,999,17789,-.22753838E-4,-.888E-5,0
STARLINK-5783,2023-042AN,2026-06-14T10:05:47.364576,15.27574546,.00019639,43.0058,218.5695,274.1810,85.8817,0,U,56022,999,17783,-.1625781E-5,-.307E-5,0
STARLINK-5771,2023-042AP,2026-06-14T20:55:50.998656,15.27579840,.0001433,43.0014,216.7821,265.3946,94.6741,0,U,56023,999,17789,.47603E-4,.1048E-4,0
STARLINK-5772,2023-042AQ,2026-06-14T19:47:22.647552,15.27575774,.00013257,43.0004,216.4310,272.8530,87.2170,0,U,56024,999,17789,.8596813E-5,-.26E-6,0
STARLINK-5766,2023-042AR,2026-06-14T20:53:59.038944,15.27578299,.0002028,43.0060,216.7758,283.3863,76.6763,0,U,56025,999,17789,.14037E-4,.124E-5,0
STARLINK-5770,2023-042AS,2026-06-14T10:11:20.264640,15.27580805,.00019456,43.0077,218.6012,280.1839,79.8793,0,U,56026,999,17782,.31338523E-4,.6E-5,0
STARLINK-5777,2023-042AT,2026-06-13T10:31:35.094432,15.27581041,.00014488,43.0060,224.0984,264.4232,95.6455,0,U,56027,999,17768,.12020497E-4,.69E-6,0
STARLINK-5779,2023-042AU,2026-06-14T20:02:10.930272,15.27575344,.00012945,42.9980,216.5073,268.9439,91.1264,0,U,56028,999,17789,-.9438648E-5,-.522E-5,0
STARLINK-5774,2023-042AV,2026-06-14T10:16:53.234688,15.27577645,.00014859,43.0000,218.6178,268.2321,91.8361,0,U,56029,999,17783,.16475607E-4,.191E-5,0
STARLINK-5781,2023-042AW,2026-06-14T10:42:47.444544,15.27571477,.00012007,43.0009,218.7480,262.3447,97.7268,0,U,56030,999,17783,-.9238459E-5,-.516E-5,0
STARLINK-5785,2023-042AX,2026-06-14T19:51:06.122880,15.27576353,.00019028,43.0019,216.4507,276.8511,83.2125,0,U,56031,999,17789,-.21927561E-4,-.866E-5,0
STARLINK-5786,2023-042AY,2026-06-14T20:28:05.213568,15.27573108,.00009632,43.0025,216.6418,269.5917,90.4824,0,U,56032,999,17789,.12333488E-4,.77E-6,0
STARLINK-5782,2023-042BA,2026-06-14T20:39:11.224512,15.27576766,.00013564,43.0032,216.6940,278.6899,81.3799,0,U,56034,999,17789,.11086276E-4,.43E-6,0
STARLINK-5792,2023-042BB,2026-06-14T10:48:20.425824,15.27579690,.00011619,43.0013,218.7776,284.4344,75.6379,0,U,56035,999,17783,-.16313015E-4,-.711E-5,0
STARLINK-5790,2023-042BC,2026-06-14T20:26:13.303104,15.27580099,.00010925,43.0051,216.6152,318.1593,41.9175,0,U,56036,999,17789,.12279155E-4,.76E-6,0
STARLINK-5758,2023-042BD,2026-06-14T19:09:26.608896,15.27575700,.00011463,43.0021,202.3320,263.6267,96.4454,0,U,56037,999,17805,.393473E-5,-.154E-5,0
STARLINK-5793,2023-042BE,2026-06-12T21:45:35.748000,15.27579812,.00030632,43.0145,227.8346,295.8792,64.1744,0,U,56038,999,17759,.17309936E-4,.213E-5,0
STARLINK-5795,2023-042BF,2026-06-14T19:35:21.165216,15.27573656,.00008809,43.0025,202.4645,292.0356,68.0402,0,U,56039,999,17805,-.16803821E-4,-.724E-5,0
STARLINK-5798,2023-042BG,2026-06-14T19:40:53.933952,15.27574542,.00018912,43.0065,202.4836,287.6348,72.4297,0,U,56040,999,17805,-.1384111E-5,-.301E-5,0
STARLINK-5800,2023-042BH,2026-06-14T14:09:32.257152,15.27880253,.0002103,42.9997,206.7411,238.8537,121.2108,0,U,56041,999,17798,-.2379E-2,-.65752E-3,0
ONEWEB-0537,2023-043A,2026-06-15T03:25:27.747264,13.16594191,.00022754,87.9096,229.1776,99.7404,260.3984,0,U,56046,999,15869,.14524273E-3,.68E-6,0
ONEWEB-0538,2023-043B,2026-06-15T03:16:20.520768,13.16595121,.00021326,87.9099,229.1812,105.2905,254.8462,0,U,56047,999,15870,.6772594E-5,.15E-6,0
ONEWEB-0546,2023-043C,2026-06-15T02:58:06.274272,13.16594960,.00027628,87.9100,229.1838,97.5212,262.6233,0,U,56048,999,15869,.29929346E-4,.24E-6,0
ONEWEB-0547,2023-043D,2026-06-15T06:43:13.728000,13.21825468,.00019466,87.9261,244.3535,104.0971,256.0380,0,U,56049,999,15797,-.23069836E-3,-.82E-6,0
ONEWEB-0548,2023-043E,2026-06-15T05:22:51.272256,13.16596386,.0002013,87.9097,229.1601,85.1005,275.0356,0,U,56050,999,15870,.24433574E-3,.106E-5,0
ONEWEB-0549,2023-043F,2026-06-15T06:34:45.382368,13.21825662,.00020838,87.9253,244.3613,110.0004,250.1355,0,U,56051,999,15797,.89560553E-4,.5E-6,0
ONEWEB-0550,2023-043G,2026-06-15T06:15:23.626368,13.21825574,.00019145,87.9257,244.3616,93.4337,266.7016,0,U,56052,999,15797,.11429223E-3,.6E-6,0
ONEWEB-0551,2023-043H,2026-06-15T06:05:28.136832,13.15549398,.00019046,87.9002,259.6115,111.2776,248.8558,0,U,56053,999,15614,.44064119E-3,.179E-5,0
